NORAD_CAT_ID,OBJECT_NAME,OBJECT_TYPE,EPOCH,MEAN_MOTION,ECCENTRICITY,INCLINATION,RA_OF_ASC_NODE,ARG_OF_PERICENTER,MEAN_ANOMALY,BSTAR,MEAN_MOTION_DOT,MEAN_MOTION_DDOT,TLE_LINE0,TLE_LINE1,TLE_LINE2,SEMIMAJOR_AXIS,PERIOD,APOGEE,PERIGEE,DECAYED
53982.0,STARLINK-5120,PAYLOAD,2022-10-11 18:00:00,15.81349059,0.0001406999999999,53.2174,63.036,37.7881,16.2071,-0.0066857,-0.0119998,0.0,0 STARLINK-5120,1 53982U 22125U   22284.75001157 -.01199980  00000-0 -66857-2 0  9996,2 53982  53.2174  63.0360 0001407  37.7881  16.2071 15.81349059  1301,6704.762,91.061,327.57,325.683,0.0
53982.0,STARLINK-5120,PAYLOAD,2022-10-12 12:00:00,15.79397116,0.0001267,53.2178,59.2835,40.1283,323.3168,-0.0073241,-0.01200599,0.0,0 STARLINK-5120,1 53982U 22125U   22285.50001157 -.01200599  00000-0 -73241-2 0  9994,2 53982  53.2178  59.2835 0001267  40.1283 323.3168 15.79397116  1412,6710.285,91.174,333.0,331.3,0.0
53982.0,STARLINK-5120,PAYLOAD,2022-10-12 14:00:01,15.79175844,0.0001496,53.2175,58.8681,40.6641,76.8395,-0.0073506,-0.01193762,0.0,0 STARLINK-5120,1 53982U 22125U   22285.58334491 -.01193762  00000-0 -73506-2 0  9999,2 53982  53.2175  58.8681 0001496  40.6641  76.8395 15.79175844  1302,6710.9119999999975,91.187,333.78,331.773,0.0
53982.0,STARLINK-5120,PAYLOAD,2022-10-12 22:00:00,15.78310632,0.0001448,53.217,57.2053,43.8245,169.2553,-0.0076745,-0.01197595,0.0,0 STARLINK-5120,1 53982U 22125U   22285.91667824 -.01197595  00000-0 -76745-2 0  9991,2 53982  53.2170  57.2053 0001448  43.8245 169.2553 15.78310632  1303,6713.364000000001,91.237,336.201,334.25699999999995,0.0
53982.0,STARLINK-5120,PAYLOAD,2022-10-13 04:00:00,15.77656481,0.0001381,53.2174,55.9577,46.6732,147.4071,-0.007864,-0.01191997,0.0,0 STARLINK-5120,1 53982U 22125U   22286.16667824 -.01191997  00000-0 -78640-2 0  9995,2 53982  53.2174  55.9577 0001381  46.6732 147.4071 15.77656481  1522,6715.219,91.275,338.01199999999994,336.157,0.0
53982.0,STARLINK-5120,PAYLOAD,2022-10-13 14:00:01,15.76574294,0.0001738,53.2174,53.8852,26.6732,14.4323,-0.0082858999999999,-0.01196048,0.0,0 STARLINK-5120,1 53982U 22125U   22286.58334491 -.01196048  00000-0 -82859-2 0  9991,2 53982  53.2174  53.8852 0001738  26.6732  14.4323 15.76574294  1308,6718.292,91.337,341.325,338.9890000000001,0.0
53982.0,STARLINK-5120,PAYLOAD,2022-10-13 16:00:00,15.76355916,0.0001861,53.2173,53.4712,31.6016,122.714,-0.0083473,-0.01193604,0.0,0 STARLINK-5120,1 53982U 22125U   22286.66667824 -.01193604  00000-0 -83473-2 0  9997,2 53982  53.2173  53.4712 0001861  31.6016 122.7140 15.76355916  1607,6718.913000000001,91.35,342.028,339.527,0.0
53982.0,STARLINK-5120,PAYLOAD,2022-10-13 22:00:00,15.75705748,0.0001841999999999,53.2173,52.2286,28.4612,105.0928,-0.0086024,-0.01194863,0.0,0 STARLINK-5120,1 53982U 22125U   22286.91667824 -.01194863  00000-0 -86024-2 0  9998,2 53982  53.2173  52.2286 0001842  28.4612 105.0928 15.75705748  1301,6720.761,91.388,343.86400000000015,341.3880000000001,0.0
53982.0,STARLINK-5120,PAYLOAD,2022-10-14 12:00:00,15.7406324,0.000169,53.2178,49.3338,40.0324,162.8188,-0.006558,-0.00863474,0.0,0 STARLINK-5120,1 53982U 22125U   22287.50001157 -.00863474  00000-0 -65580-2 0  9999,2 53982  53.2178  49.3338 0001690  40.0324 162.8188 15.74063240  1731,6725.435,91.483,348.43699999999984,346.164,0.0
53982.0,STARLINK-5120,PAYLOAD,2022-10-14 14:00:01,15.73823483,0.000159,53.2175,48.9215,43.4914,271.851,-0.005282,-0.00701781,0.0,0 STARLINK-5120,1 53982U 22125U   22287.58334491 -.00701781  00000-0 -52820-2 0  9992,2 53982  53.2175  48.9215 0001590  43.4914 271.8510 15.73823483  1303,6726.118,91.497,349.05300000000005,346.914,0.0
53982.0,STARLINK-5120,PAYLOAD,2022-10-14 20:00:01,15.733012400000002,0.000169,53.2173,47.6841,41.1984,251.2486,-0.0010975,-0.00152555,0.0,0 STARLINK-5120,1 53982U 22125U   22287.83334491 -.00152555  00000-0 -10975-2 0  9994,2 53982  53.2173  47.6841 0001690  41.1984 251.2486 15.73301240  1301,6727.607,91.527,350.6090000000001,348.335,0.0
53982.0,STARLINK-5120,PAYLOAD,2022-10-15 04:00:00,15.73202004,0.0001699999999999,53.2173,46.0323,33.5271,347.9037,2.7989000000000013e-05,3.309e-05,0.0,0 STARLINK-5120,1 53982U 22125U   22288.16667824  .00003309  00000-0  27989-4 0  9995,2 53982  53.2173  46.0323 0001700  33.5271 347.9037 15.73202004  1836,6727.889,91.533,350.898,348.611,0.0
53982.0,STARLINK-5120,PAYLOAD,2022-10-15 14:00:01,15.73287151,0.0001934,53.2205,43.9796,42.4704,180.0418,-0.00047277,-0.00066699,0.0,0 STARLINK-5120,1 53982U 22125U   22288.58334491 -.00066699  00000-0 -47277-3 0  9996,2 53982  53.2205  43.9796 0001934  42.4704 180.0418 15.73287151  1308,6727.647,91.528,350.81300000000016,348.211,0.0
53982.0,STARLINK-5120,PAYLOAD,2022-10-15 22:00:01,15.73205196,0.0001568,53.2173,42.3221,38.1791,273.4172,-1.0974e-05,-2.161e-05,0.0,0 STARLINK-5120,1 53982U 22125U   22288.91668981 -.00002161  00000-0 -10974-4 0  9996,2 53982  53.2173  42.3221 0001568  38.1791 273.4172 15.73205196  1302,6727.88,91.533,350.8,348.69,0.0
53982.0,STARLINK-5120,PAYLOAD,2022-10-16 12:00:00,15.73226813,0.0001868,53.2205,39.4433,33.3344,343.8381,-0.00075852,-0.00105873,0.0,0 STARLINK-5120,1 53982U 22125U   22289.50001157 -.00105873  00000-0 -75852-3 0  9997,2 53982  53.2205  39.4433 0001868  33.3344 343.8381 15.73226813  2049,6727.819,91.532,350.94,348.427,0.0
53982.0,STARLINK-5120,PAYLOAD,2022-10-16 14:00:01,15.73192318,0.000195,53.2202,39.0315,30.7873,98.6267,-0.00046442,-0.00065279,0.0,0 STARLINK-5120,1 53982U 22125U   22289.58334491 -.00065279  00000-0 -46442-3 0  9993,2 53982  53.2202  39.0315 0001950  30.7873  98.6267 15.73192318  1309,6727.917,91.534,351.094,348.47,0.0
53982.0,STARLINK-5120,PAYLOAD,2022-10-16 22:00:00,15.73124921,0.0001969,53.2197,37.3818,27.2902,191.0076,-1.9189e-05,-3.304e-05,0.0,0 STARLINK-5120,1 53982U 22125U   22289.91667824 -.00003304  00000-0 -19189-4 0  9999,2 53982  53.2197  37.3818 0001969  27.2902 191.0076 15.73124921  1306,6728.109,91.538,351.2990000000001,348.649,0.0
53982.0,STARLINK-5120,PAYLOAD,2022-10-17 04:00:00,15.73095727,0.0001726,53.2195,36.1436,29.8045,165.12099999999995,0.0012601,0.00179249,0.0,0 STARLINK-5120,1 53982U 22125U   22290.16667824  .00179249  00000-0  12601-2 0  9998,2 53982  53.2195  36.1436 0001726  29.8045 165.1210 15.73095727  2151,6728.191999999999,91.539,351.219,348.896,0.0
53982.0,STARLINK-5120,PAYLOAD,2022-10-17 14:00:01,15.73092267,0.0002045999999999,53.2179,34.076,37.0413,359.2174,0.0012456,0.0017710999999999,0.0,0 STARLINK-5120,1 53982U 22125U   22290.58334491  .00177110  00000-0  12456-2 0  9998,2 53982  53.2179  34.0760 0002046  37.0413 359.2174 15.73092267  1303,6728.2019999999975,91.539,351.444,348.691,0.0
53982.0,STARLINK-5120,PAYLOAD,2022-10-17 20:00:01,15.73191332,0.0002148,53.2186,32.8464,24.4887,348.466,0.00014252,0.00019421,0.0,0 STARLINK-5120,1 53982U 22125U   22290.83334491  .00019421  00000-0  14252-3 0  9993,2 53982  53.2186  32.8464 0002148  24.4887 348.4660 15.73191332  2254,6727.92,91.534,351.23,348.34,0.0
53982.0,STARLINK-5120,PAYLOAD,2022-10-17 22:00:00,15.73233714,0.0002104,53.2187,32.4334,26.9274,98.2465,-0.00051461,-0.00072336,0.0,0 STARLINK-5120,1 53982U 22125U   22290.91667824 -.00072336  00000-0 -51461-3 0  9990,2 53982  53.2187  32.4334 0002104  26.9274  98.2465 15.73233714  1305,6727.799,91.531,351.08,348.249,0.0
53982.0,STARLINK-5120,PAYLOAD,2022-10-18 12:00:00,15.73189813,0.0002210999999999,53.2184,29.5471,28.6084,162.1863,-0.0003182,-0.00045026,0.0,0 STARLINK-5120,1 53982U 22125U   22291.50001157 -.00045026  00000-0 -31820-3 0  9990,2 53982  53.2184  29.5471 0002211  28.6084 162.1863 15.73189813  2368,6727.924,91.534,351.277,348.302,0.0
53982.0,STARLINK-5120,PAYLOAD,2022-10-18 14:00:01,15.73151668,0.0002269,53.2183,29.1352,28.4888,274.5435,0.00018005,0.00024672,0.0,0 STARLINK-5120,1 53982U 22125U   22291.58334491  .00024672  00000-0  18005-3 0  9990,2 53982  53.2183  29.1352 0002269  28.4888 274.5435 15.73151668  1307,6728.033,91.536,351.425,348.371,0.0
53982.0,STARLINK-5120,PAYLOAD,2022-10-18 20:00:01,15.73205441,0.0002233,53.2171,27.8887,31.2033,248.5021,-1.2711e-05,-2.406e-05,0.0,0 STARLINK-5120,1 53982U 22125U   22291.83334491 -.00002406  00000-0 -12711-4 0  9990,2 53982  53.2171  27.8887 0002233  31.2033 248.5021 15.73205441  2411,6727.88,91.533,351.247,348.242,0.0
53982.0,STARLINK-5120,PAYLOAD,2022-10-18 22:00:00,15.73204242,0.0002215999999999,53.2172,27.4758,32.6405,359.2993,1.3152e-06,-4.37e-06,0.0,0 STARLINK-5120,1 53982U 22125U   22291.91667824 -.00000437  00000-0  13152-5 0  9990,2 53982  53.2172  27.4758 0002216  32.6405 359.2993 15.73204242  1307,6727.8830000000025,91.533,351.23900000000015,348.25699999999995,0.0
53982.0,STARLINK-5120,PAYLOAD,2022-10-19 04:00:00,15.73171152,0.0002088,53.218,26.2468,28.2741,340.2989,0.00074488,0.00105109,0.0,0 STARLINK-5120,1 53982U 22125U   22292.16667824  .00105109  00000-0  74488-3 0  9996,2 53982  53.2180  26.2468 0002088  28.2741 340.2989 15.73171152  2468,6727.977,91.535,351.247,348.43800000000016,0.0
53982.0,STARLINK-5120,PAYLOAD,2022-10-19 12:00:00,15.73279373,0.0002249,53.2182,24.5991,23.6341,73.8703,-0.00060003,-0.00084289,0.0,0 STARLINK-5120,1 53982U 22125U   22292.50001157 -.00084289  00000-0 -60003-3 0  9990,2 53982  53.2182  24.5991 0002249  23.6341  73.8703 15.73279373  2520,6727.669,91.529,351.047,348.021,0.0
53982.0,STARLINK-5120,PAYLOAD,2022-10-19 14:00:01,15.73277646,0.0002289,53.2184,24.1871,22.1728,187.5866,-0.00065589,-0.00091989,0.0,0 STARLINK-5120,1 53982U 22125U   22292.58334491 -.00091989  00000-0 -65589-3 0  9997,2 53982  53.2184  24.1871 0002289  22.1728 187.5866 15.73277646  1301,6727.674,91.529,351.079,347.999,0.0
53982.0,STARLINK-5120,PAYLOAD,2022-10-19 20:00:01,15.73222305,0.0002299,53.2183,22.9496,16.2427,170.2617,-0.00023703,-0.0003379,0.0,0 STARLINK-5120,1 53982U 22125U   22292.83334491 -.00033790  00000-0 -23703-3 0  9993,2 53982  53.2183  22.9496 0002299  16.2427 170.2617 15.73222305  2575,6727.831999999999,91.532,351.24300000000005,348.15,0.0
